{"type": "FeatureCollection", "features": [ {"type": "Feature", "properties": {"norad_id": 67133, "name": "KUIPER-00144", "group": "last-30-days", "lat": -27.2027767002994, "lon": 31.211449911927453, "alt_km": 466.8173597043997, "timestamp": "2025-12-27T06:41:29.623199+00:00", "meta": {"OBJECT_NAME": "KUIPER-00144", "OBJECT_ID": "2025-301A", "EPOCH": "2025-12-26T21:28:26.216832", "MEAN_MOTION": 15.35490951, "ECCENTRICITY": 0.00060514, "INCLINATION": 51.871, "RA_OF_ASC_NODE": 56.8755, "ARG_OF_PERICENTER": 124.7391, "MEAN_ANOMALY": 235.4166, "EPHEMERIS_TYPE": 0, "CLASSIFICATION_TYPE": "U", "NORAD_CAT_ID": 67133, "ELEMENT_SET_NO": 999, "REV_AT_EPOCH": 254, "BSTAR": 0.00095257397, "MEAN_MOTION_DOT": 0.00033135, "MEAN_MOTION_DDOT": 0}, "tle": {"line1": "1 67133U 25301A   25360.89474788  .00033135  00000+0  95257-3 0  9997", "line2": "2 67133  51.8710  56.8755 0006051 124.7391 235.4166 15.35490951  2549"}}, "geometry": {"type": "Point", "coordinates": [31.211449911927453, -27.2027767002994]}}, {"type": "Feature", "properties": {"norad_id": 67134, "name": "KUIPER-00164", "group": "last-30-days", "lat": -5.366459291637233, "lon": 50.73086651208021, "alt_km": 459.690203622622, "timestamp": "2025-12-27T06:41:29.623210+00:00", "meta": {"OBJECT_NAME": "KUIPER-00164", "OBJECT_ID": "2025-301B", "EPOCH": "2025-12-26T21:21:12.186432", "MEAN_MOTION": 15.36183615, "ECCENTRICITY": 0.00031295, "INCLINATION": 51.8732, "RA_OF_ASC_NODE": 56.8408, "ARG_OF_PERICENTER": 107.8018, "MEAN_ANOMALY": 252.331, "EPHEMERIS_TYPE": 0, "CLASSIFICATION_TYPE": "U", "NORAD_CAT_ID": 67134, "ELEMENT_SET_NO": 999, "REV_AT_EPOCH": 272, "BSTAR": 0.001017731, "MEAN_MOTION_DOT": 0.00036231, "MEAN_MOTION_DDOT": 0}, "tle": {"line1": "1 67134U 25301B   25360.88972438  .00036231  00000+0  10177-2 0  9999", "line2": "2 67134  51.8732  56.8408 0003129 107.8018 252.3310 15.36183615  2726"}}, "geometry": {"type": "Point", "coordinates": [50.73086651208021, -5.366459291637233]}}, {"type": "Feature", "properties": {"norad_id": 67135, "name": "KUIPER-00175", "group": "last-30-days", "lat": 9.741031218277975, "lon": 62.66478432924538, "alt_km": 454.38291538293015, "timestamp": "2025-12-27T06:41:29.623220+00:00", "meta": {"OBJECT_NAME": "KUIPER-00175", "OBJECT_ID": "2025-301C", "EPOCH": "2025-12-26T19:42:42.119712", "MEAN_MOTION": 15.36621513, "ECCENTRICITY": 0.00023014, "INCLINATION": 51.8745, "RA_OF_ASC_NODE": 57.1268, "ARG_OF_PERICENTER": 57.6434, "MEAN_ANOMALY": 302.4774, "EPHEMERIS_TYPE": 0, "CLASSIFICATION_TYPE": "U", "NORAD_CAT_ID": 67135, "ELEMENT_SET_NO": 999, "REV_AT_EPOCH": 260, "BSTAR": 0.00053936817, "MEAN_MOTION_DOT": 0.00019249, "MEAN_MOTION_DDOT": 0}, "tle": {"line1": "1 67135U 25301C   25360.82132083  .00019249  00000+0  53937-3 0  9990", "line2": "2 67135  51.8745  57.1268 0002301  57.6434 302.4774 15.36621513  2606"}}, "geometry": {"type": "Point", "coordinates": [62.66478432924538, 9.741031218277975]}}, {"type": "Feature", "properties": {"norad_id": 67136, "name": "KUIPER-00179", "group": "last-30-days", "lat": 0.34696551511414303, "lon": 55.21530378148267, "alt_km": 457.7348379705554, "timestamp": "2025-12-27T06:41:29.623230+00:00", "meta": {"OBJECT_NAME": "KUIPER-00179", "OBJECT_ID": "2025-301D", "EPOCH": "2025-12-26T18:12:00.163008", "MEAN_MOTION": 15.3628107, "ECCENTRICITY": 0.00029941, "INCLINATION": 51.8746, "RA_OF_ASC_NODE": 57.4564, "ARG_OF_PERICENTER": 88.5033, "MEAN_ANOMALY": 271.6296, "EPHEMERIS_TYPE": 0, "CLASSIFICATION_TYPE": "U", "NORAD_CAT_ID": 67136, "ELEMENT_SET_NO": 999, "REV_AT_EPOCH": 270, "BSTAR": 0.00083357901, "MEAN_MOTION_DOT": 0.00029673, "MEAN_MOTION_DDOT": 0}, "tle": {"line1": "1 67136U 25301D   25360.75833522  .00029673  00000+0  83358-3 0  9991", "line2": "2 67136  51.8746  57.4564 0002994  88.5033 271.6296 15.36281070  2703"}}, "geometry": {"type": "Point", "coordinates": [55.21530378148267, 0.34696551511414303]}}, {"type": "Feature", "properties": {"norad_id": 67137, "name": "KUIPER-00181", "group": "last-30-days", "lat": -49.73913650327577, "lon": -12.973886727787661, "alt_km": 472.0190570703153, "timestamp": "2025-12-27T06:41:29.623242+00:00", "meta": {"OBJECT_NAME": "KUIPER-00181", "OBJECT_ID": "2025-301E", "EPOCH": "2025-12-26T18:31:05.609280", "MEAN_MOTION": 15.34464358, "ECCENTRICITY": 0.00100169, "INCLINATION": 51.8644, "RA_OF_ASC_NODE": 57.5486, "ARG_OF_PERICENTER": 145.4576, "MEAN_ANOMALY": 214.7062, "EPHEMERIS_TYPE": 0, "CLASSIFICATION_TYPE": "U", "NORAD_CAT_ID": 67137, "ELEMENT_SET_NO": 999, "REV_AT_EPOCH": 268, "BSTAR": 0.00070630958, "MEAN_MOTION_DOT": 0.00023665, "MEAN_MOTION_DDOT": 0}, "tle": {"line1": "1 67137U 25301E   25360.77159270  .00023665  00000+0  70631-3 0  9990", "line2": "2 67137  51.8644  57.5486 0010016 145.4576 214.7062 15.34464358  2680"}}, "geometry": {"type": "Point", "coordinates": [-12.973886727787661, -49.73913650327577]}}, {"type": "Feature", "properties": {"norad_id": 67138, "name": "KUIPER-00183", "group": "last-30-days", "lat": -51.83583403848963, "lon": -33.666536443124926, "alt_km": 471.76476687564355, "timestamp": "2025-12-27T06:41:29.623253+00:00", "meta": {"OBJECT_NAME": "KUIPER-00183", "OBJECT_ID": "2025-301F", "EPOCH": "2025-12-26T18:34:23.768544", "MEAN_MOTION": 15.34130983, "ECCENTRICITY": 0.00112199, "INCLINATION": 51.8616, "RA_OF_ASC_NODE": 57.5624, "ARG_OF_PERICENTER": 149.9888, "MEAN_ANOMALY": 210.1743, "EPHEMERIS_TYPE": 0, "CLASSIFICATION_TYPE": "U", "NORAD_CAT_ID": 67138, "ELEMENT_SET_NO": 999, "REV_AT_EPOCH": 269, "BSTAR": 0.00098114345, "MEAN_MOTION_DOT": 0.00032724, "MEAN_MOTION_DDOT": 0}, "tle": {"line1": "1 67138U 25301F   25360.77388621  .00032724  00000+0  98114-3 0  9997", "line2": "2 67138  51.8616  57.5624 0011219 149.9888 210.1743 15.34130983  2696"}}, "geometry": {"type": "Point", "coordinates": [-33.666536443124926, -51.83583403848963]}}, {"type": "Feature", "properties": {"norad_id": 67139, "name": "KUIPER-00184", "group": "last-30-days", "lat": -48.280446769461214, "lon": -6.697525341233458, "alt_km": 471.962673108731, "timestamp": "2025-12-27T06:41:29.623267+00:00", "meta": {"OBJECT_NAME": "KUIPER-00184", "OBJECT_ID": "2025-301G", "EPOCH": "2025-12-26T15:22:21.745344", "MEAN_MOTION": 15.34443698, "ECCENTRICITY": 0.000899, "INCLINATION": 51.8629, "RA_OF_ASC_NODE": 58.1701, "ARG_OF_PERICENTER": 144.075, "MEAN_ANOMALY": 216.0841, "EPHEMERIS_TYPE": 0, "CLASSIFICATION_TYPE": "U", "NORAD_CAT_ID": 67139, "ELEMENT_SET_NO": 999, "REV_AT_EPOCH": 278, "BSTAR": 8.2317e-05, "MEAN_MOTION_DOT": 2.409e-05, "MEAN_MOTION_DDOT": 0}, "tle": {"line1": "1 67139U 25301G   25360.64052946  .00002409  00000+0  82317-4 0  9998", "line2": "2 67139  51.8629  58.1701 0008990 144.0750 216.0841 15.34443698  2784"}}, "geometry": {"type": "Point", "coordinates": [-6.697525341233458, -48.280446769461214]}}, {"type": "Feature", "properties": {"norad_id": 67140, "name": "KUIPER-00186", "group": "last-30-days", "lat": -37.97629422101603, "lon": 17.232983525939897, "alt_km": 470.048926430587, "timestamp": "2025-12-27T06:41:29.623277+00:00", "meta": {"OBJECT_NAME": "KUIPER-00186", "OBJECT_ID": "2025-301H", "EPOCH": "2025-12-26T18:24:57.394080", "MEAN_MOTION": 15.35057816, "ECCENTRICITY": 0.00077321, "INCLINATION": 51.8686, "RA_OF_ASC_NODE": 57.5207, "ARG_OF_PERICENTER": 133.157, "MEAN_ANOMALY": 227.0064, "EPHEMERIS_TYPE": 0, "CLASSIFICATION_TYPE": "U", "NORAD_CAT_ID": 67140, "ELEMENT_SET_NO": 999, "REV_AT_EPOCH": 252, "BSTAR": 0.00091971212, "MEAN_MOTION_DOT": 0.0003154, "MEAN_MOTION_DDOT": 0}, "tle": {"line1": "1 67140U 25301H   25360.76733095  .00031540  00000+0  91971-3 0  9997", "line2": "2 67140  51.8686  57.5207 0007732 133.1570 227.0064 15.35057816  2520"}}, "geometry": {"type": "Point", "coordinates": [17.232983525939897, -37.97629422101603]}}, {"type": "Feature", "properties": {"norad_id": 67141, "name": "KUIPER-00187", "group": "last-30-days", "lat": -15.409728727885575, "lon": 42.48657698409703, "alt_km": 463.05785437974373, "timestamp": "2025-12-27T06:41:29.623287+00:00", "meta": {"OBJECT_NAME": "KUIPER-00187", "OBJECT_ID": "2025-301J", "EPOCH": "2025-12-26T21:24:27.345024", "MEAN_MOTION": 15.35874319, "ECCENTRICITY": 0.00043935, "INCLINATION": 51.872, "RA_OF_ASC_NODE": 56.8567, "ARG_OF_PERICENTER": 118.8271, "MEAN_ANOMALY": 241.3157, "EPHEMERIS_TYPE": 0, "CLASSIFICATION_TYPE": "U", "NORAD_CAT_ID": 67141, "ELEMENT_SET_NO": 999, "REV_AT_EPOCH": 254, "BSTAR": 0.0010151195, "MEAN_MOTION_DOT": 0.0003578, "MEAN_MOTION_DDOT": 0}, "tle": {"line1": "1 67141U 25301J   25360.89198316  .00035780  00000+0  10151-2 0  9993", "line2": "2 67141  51.8720  56.8567 0004393 118.8271 241.3157 15.35874319  2548"}}, "geometry": {"type": "Point", "coordinates": [42.48657698409703, -15.409728727885575]}}, {"type": "Feature", "properties": {"norad_id": 67142, "name": "KUIPER-00188", "group": "last-30-days", "lat": -40.287840642804994, "lon": 13.313247741870537, "alt_km": 470.07075409441313, "timestamp": "2025-12-27T06:41:29.623297+00:00", "meta": {"OBJECT_NAME": "KUIPER-00188", "OBJECT_ID": "2025-301K", "EPOCH": "2025-12-26T18:25:54.546816", "MEAN_MOTION": 15.34963811, "ECCENTRICITY": 0.00073898, "INCLINATION": 51.8696, "RA_OF_ASC_NODE": 57.5251, "ARG_OF_PERICENTER": 137.8145, "MEAN_ANOMALY": 222.341, "EPHEMERIS_TYPE": 0, "CLASSIFICATION_TYPE": "U", "NORAD_CAT_ID": 67142, "ELEMENT_SET_NO": 999, "REV_AT_EPOCH": 252, "BSTAR": 0.00086555663, "MEAN_MOTION_DOT": 0.0002956, "MEAN_MOTION_DDOT": 0}, "tle": {"line1": "1 67142U 25301K   25360.76799244  .00029560  00000+0  86556-3 0  9999", "line2": "2 67142  51.8696  57.5251 0007389 137.8145 222.3410 15.34963811  2522"}}, "geometry": {"type": "Point", "coordinates": [13.313247741870537, -40.287840642804994]}}]}